{"type":"FeatureCollection","features":[{"id":"0","type":"Feature","properties":{"jrstatcode":"2025WK055605","wk_code":"WK055605","wk_naam":"Wijk 05 Burgemeesterswijk","jrgm":"2025GM0556","gm_code":"GM0556","gm_naam":"Maassluis","water":"NEE","jaar":"2025"},"geometry":{"type":"Polygon","coordinates":[[[4.308196,51.895691],[4.307491,51.895746],[4.306468,51.895832],[4.305462,51.89594],[4.304168,51.896092],[4.303017,51.896222],[4.302004,51.896331],[4.301042,51.896441],[4.299844,51.896584],[4.298406,51.896767],[4.296994,51.896962],[4.296373,51.897053],[4.295562,51.897172],[4.294615,51.897317],[4.294432,51.897345],[4.293435,51.897502],[4.292589,51.897643],[4.292092,51.897727],[4.291465,51.897849],[4.290492,51.898043],[4.289827,51.898174],[4.289385,51.898263],[4.288853,51.898373],[4.288689,51.898407],[4.287939,51.898561],[4.287255,51.898724],[4.286534,51.898896],[4.285587,51.89913],[4.284781,51.899342],[4.283863,51.899593],[4.28294,51.899849],[4.281886,51.900152],[4.280593,51.900555],[4.279292,51.90097],[4.278134,51.901351],[4.277107,51.901697],[4.275967,51.902092],[4.274966,51.90244],[4.27435,51.902669],[4.273608,51.902951],[4.272614,51.903322],[4.271616,51.903714],[4.271203,51.903883],[4.270398,51.90421],[4.269533,51.904558],[4.268423,51.904999],[4.267571,51.905335],[4.266183,51.905904],[4.266183,51.905904],[4.26518,51.906291],[4.263754,51.906866],[4.262924,51.907205],[4.260301,51.908255],[4.259018,51.908761],[4.257812,51.909246],[4.256798,51.909643],[4.255743,51.910051],[4.255429,51.910171],[4.255309,51.910216],[4.254971,51.910338],[4.253977,51.910688],[4.253634,51.910815],[4.252844,51.9111],[4.251573,51.911531],[4.250855,51.911764],[4.250262,51.911951],[4.248938,51.912364],[4.247662,51.912751],[4.246306,51.913128],[4.245008,51.913496],[4.244534,51.913641],[4.244228,51.913734],[4.244198,51.913743],[4.244041,51.913789],[4.24365,51.913908],[4.242407,51.914341],[4.24112,51.914871],[4.240056,51.915351],[4.239844,51.915451],[4.239327,51.915691],[4.238864,51.915909],[4.238343,51.916193],[4.237818,51.916476],[4.237586,51.916613],[4.236943,51.917],[4.236758,51.91711],[4.236688,51.917155],[4.236465,51.917303],[4.236311,51.917406],[4.235909,51.917671],[4.23574,51.917781],[4.234792,51.918462],[4.23393,51.919178],[4.23307,51.919899],[4.232237,51.920645],[4.232167,51.920709],[4.230626,51.922122],[4.229805,51.922882],[4.22939,51.923306],[4.229063,51.923639],[4.228298,51.924403],[4.22757,51.925165],[4.226758,51.925915],[4.225907,51.926653],[4.225007,51.927345],[4.224574,51.927647],[4.224041,51.928019],[4.223702,51.928247],[4.223056,51.928672],[4.222905,51.928764],[4.221958,51.929341],[4.220952,51.929918],[4.219932,51.930468],[4.219869,51.930502],[4.218752,51.931083],[4.217556,51.93165],[4.216864,51.931983],[4.21647,51.932178],[4.215962,51.932409],[4.215301,51.932705],[4.214103,51.933204],[4.213085,51.933596],[4.212718,51.933727],[4.21464,51.935923],[4.214795,51.9361],[4.215143,51.936497],[4.215179,51.936483],[4.215304,51.936596],[4.215344,51.936718],[4.215417,51.936804],[4.215433,51.936822],[4.215472,51.936867],[4.215598,51.93701],[4.215656,51.937077],[4.215674,51.937097],[4.215925,51.937383],[4.217468,51.939141],[4.219311,51.941242],[4.219453,51.941404],[4.219529,51.9414],[4.219803,51.941383],[4.219866,51.941432],[4.220182,51.941679],[4.221114,51.942405],[4.221453,51.942669],[4.223723,51.944434],[4.224137,51.944756],[4.224959,51.945397],[4.225294,51.945658],[4.225343,51.945696],[4.227754,51.947572],[4.228121,51.947858],[4.228254,51.947962],[4.228291,51.947991],[4.228292,51.947992],[4.228535,51.947661],[4.228556,51.947634],[4.228609,51.947568],[4.228822,51.947247],[4.228874,51.947155],[4.22904,51.946888],[4.229248,51.946569],[4.229258,51.946554],[4.229425,51.946236],[4.229484,51.946122],[4.229695,51.945698],[4.229774,51.945538],[4.229916,51.945276],[4.229916,51.945276],[4.230018,51.945092],[4.230106,51.944959],[4.230126,51.944929],[4.230191,51.944817],[4.230274,51.944691],[4.230331,51.944592],[4.230368,51.944548],[4.230447,51.944461],[4.230528,51.944374],[4.230704,51.944205],[4.230794,51.944115],[4.230843,51.944066],[4.230992,51.943903],[4.231061,51.943824],[4.231137,51.943727],[4.231152,51.943705],[4.231211,51.943596],[4.231266,51.943524],[4.231308,51.943469],[4.231493,51.94323],[4.231528,51.943183],[4.231587,51.943104],[4.231609,51.943079],[4.231643,51.943043],[4.231673,51.943012],[4.231692,51.942992],[4.231741,51.942946],[4.231767,51.942922],[4.23192,51.942955],[4.232077,51.942988],[4.232154,51.943005],[4.232481,51.943086],[4.232807,51.943178],[4.233076,51.943253],[4.233304,51.943317],[4.233564,51.943387],[4.233794,51.943448],[4.234047,51.943514],[4.234297,51.943578],[4.234569,51.94365],[4.234909,51.943729],[4.235265,51.943796],[4.235582,51.943837],[4.235722,51.943855],[4.235915,51.943881],[4.236042,51.943891],[4.236343,51.943917],[4.236755,51.943925],[4.236941,51.94393],[4.237253,51.943925],[4.237569,51.943909],[4.237892,51.94388],[4.238147,51.943853],[4.238421,51.943815],[4.238469,51.943801],[4.238782,51.943738],[4.239076,51.943633],[4.239581,51.943287],[4.239673,51.943225],[4.240216,51.942853],[4.240317,51.942872],[4.240371,51.942829],[4.240493,51.942732],[4.240825,51.942467],[4.241002,51.942326],[4.241081,51.942264],[4.241184,51.942183],[4.241275,51.942197],[4.241775,51.941796],[4.242061,51.941567],[4.242477,51.941233],[4.242387,51.941216],[4.243474,51.940346],[4.24356,51.940361],[4.244618,51.939515],[4.244845,51.939334],[4.245077,51.939148],[4.245189,51.939059],[4.245261,51.939001],[4.245424,51.938871],[4.246057,51.938366],[4.246058,51.938366],[4.24687,51.937714],[4.247641,51.937094],[4.247692,51.937053],[4.247746,51.93701],[4.248422,51.936471],[4.248568,51.936356],[4.248721,51.936233],[4.249287,51.93578],[4.249669,51.935477],[4.249669,51.935477],[4.250002,51.935213],[4.250104,51.93513],[4.250313,51.934964],[4.250646,51.934699],[4.250768,51.934601],[4.250785,51.934588],[4.251338,51.934144],[4.251549,51.933974],[4.25155,51.933974],[4.251746,51.933817],[4.252993,51.932814],[4.253095,51.932733],[4.253349,51.932519],[4.254951,51.931204],[4.256024,51.930344],[4.256535,51.929928],[4.256442,51.92991],[4.257138,51.92935],[4.257822,51.92881],[4.257902,51.928828],[4.258358,51.928568],[4.25844,51.928521],[4.258742,51.928382],[4.259158,51.928159],[4.25923,51.928114],[4.259402,51.928004],[4.259567,51.927901],[4.259798,51.927757],[4.260522,51.927307],[4.260522,51.927307],[4.26055,51.927313],[4.260624,51.927218],[4.26068,51.927148],[4.261049,51.926682],[4.261414,51.926782],[4.26142,51.926781],[4.261727,51.926732],[4.262441,51.926612],[4.262927,51.926414],[4.262931,51.926412],[4.263619,51.926133],[4.26362,51.926133],[4.263729,51.926089],[4.264157,51.925619],[4.264168,51.925605],[4.264272,51.925468],[4.264284,51.925452],[4.265093,51.925691],[4.265222,51.925644],[4.265252,51.925633],[4.265372,51.925585],[4.265427,51.925564],[4.266128,51.925302],[4.266288,51.925243],[4.266396,51.925203],[4.267119,51.92494],[4.267723,51.924727],[4.268069,51.924606],[4.268377,51.924518],[4.268556,51.924467],[4.268742,51.92438],[4.268991,51.924258],[4.26932,51.924107],[4.269531,51.923998],[4.269662,51.923925],[4.26971,51.923898],[4.269804,51.923848],[4.269812,51.923844],[4.269852,51.92382],[4.270107,51.92372],[4.270264,51.923658],[4.27041,51.9236],[4.27047,51.923576],[4.270515,51.923567],[4.270683,51.923533],[4.27096,51.923477],[4.271499,51.923466],[4.271748,51.9235],[4.272242,51.923546],[4.272389,51.923556],[4.272485,51.923554],[4.272671,51.923543],[4.272678,51.923542],[4.272696,51.923541],[4.272782,51.923535],[4.272795,51.923533],[4.272792,51.923539],[4.272897,51.923527],[4.273048,51.92351],[4.27313,51.923502],[4.273231,51.923488],[4.273301,51.923479],[4.273324,51.923476],[4.27334,51.923474],[4.273356,51.923478],[4.273383,51.923485],[4.273396,51.923496],[4.27344,51.92356],[4.273607,51.923547],[4.273602,51.923536],[4.2736,51.923522],[4.273598,51.923505],[4.273603,51.923492],[4.273609,51.923477],[4.273617,51.923465],[4.273675,51.923447],[4.273731,51.92344],[4.273789,51.923434],[4.273853,51.923427],[4.273952,51.923425],[4.274001,51.923423],[4.27402,51.923431],[4.274042,51.92343],[4.274538,51.923397],[4.27498,51.923364],[4.27572,51.923307],[4.2764,51.923218],[4.277958,51.923035],[4.278288,51.922997],[4.278455,51.922975],[4.278532,51.922973],[4.278605,51.922977],[4.278726,51.923018],[4.278738,51.923022],[4.279152,51.922971],[4.279907,51.922854],[4.279957,51.922848],[4.280045,51.922836],[4.280521,51.922772],[4.280734,51.922745],[4.280824,51.92275],[4.281477,51.922668],[4.281944,51.922609],[4.281977,51.922605],[4.281984,51.922604],[4.281993,51.922603],[4.283148,51.922463],[4.283355,51.922437],[4.284183,51.922324],[4.284266,51.922313],[4.285247,51.922184],[4.285312,51.922176],[4.285949,51.922098],[4.286086,51.92208],[4.286705,51.922],[4.286793,51.921989],[4.287294,51.921924],[4.2873,51.921924],[4.288307,51.921794],[4.28845,51.921776],[4.288803,51.921729],[4.288816,51.921727],[4.289072,51.921693],[4.289278,51.921666],[4.289278,51.921666],[4.289282,51.921665],[4.289477,51.921639],[4.289995,51.92157],[4.290005,51.921569],[4.290022,51.921566],[4.290186,51.921546],[4.29036,51.921525],[4.291554,51.921374],[4.291831,51.92134],[4.292611,51.921236],[4.29265,51.921263],[4.292651,51.921263],[4.292954,51.921468],[4.293272,51.921683],[4.293324,51.921718],[4.293506,51.921841],[4.293524,51.921853],[4.293561,51.921881],[4.29357,51.921888],[4.293854,51.922074],[4.29408,51.922221],[4.294434,51.922446],[4.294894,51.92276],[4.295073,51.922878],[4.295425,51.923111],[4.295907,51.923433],[4.296518,51.923837],[4.29751,51.924494],[4.297518,51.9245],[4.297574,51.924537],[4.297645,51.924584],[4.297646,51.924584],[4.299364,51.925718],[4.299366,51.925719],[4.299371,51.925723],[4.299377,51.925726],[4.300243,51.926298],[4.300371,51.926382],[4.300622,51.926546],[4.300627,51.926549],[4.300627,51.926549],[4.300627,51.92655],[4.300831,51.926683],[4.301225,51.926932],[4.301632,51.927203],[4.30189,51.927373],[4.301952,51.927414],[4.302837,51.928001],[4.303234,51.92826],[4.303793,51.92863],[4.304454,51.929067],[4.304487,51.929089],[4.304503,51.9291],[4.304596,51.929165],[4.30479,51.929301],[4.305517,51.929775],[4.306551,51.930451],[4.307604,51.931148],[4.307761,51.931243],[4.307775,51.931251],[4.307804,51.931268],[4.307836,51.931289],[4.308072,51.931441],[4.308192,51.931518],[4.308286,51.931579],[4.308395,51.931652],[4.308482,51.931709],[4.308517,51.931728],[4.30853,51.931736],[4.308573,51.93176],[4.308684,51.931825],[4.308822,51.931904],[4.308943,51.931976],[4.309083,51.932057],[4.309231,51.932144],[4.309342,51.932209],[4.309476,51.932289],[4.309606,51.932366],[4.309638,51.932386],[4.30966,51.9324],[4.309788,51.93249],[4.309906,51.932574],[4.310019,51.932654],[4.310112,51.932718],[4.310162,51.932753],[4.310217,51.932791],[4.310253,51.932815],[4.31031,51.932851],[4.310355,51.932879],[4.310418,51.93292],[4.310479,51.93296],[4.310542,51.933],[4.310624,51.933051],[4.310703,51.933098],[4.310816,51.933169],[4.31091,51.93323],[4.311017,51.933296],[4.311104,51.93335],[4.311183,51.9334],[4.311466,51.93357],[4.311583,51.933642],[4.312142,51.933984],[4.312361,51.934115],[4.312645,51.934283],[4.313091,51.934541],[4.313693,51.93489],[4.313747,51.934933],[4.313792,51.934979],[4.313843,51.935053],[4.313892,51.935128],[4.313952,51.935228],[4.31401,51.93533],[4.314073,51.935468],[4.314122,51.935578],[4.314122,51.93558],[4.314121,51.935587],[4.314119,51.93562],[4.31413,51.935662],[4.314144,51.935712],[4.314207,51.935834],[4.31427,51.935957],[4.314471,51.936347],[4.314544,51.936449],[4.314688,51.93662],[4.314843,51.93681],[4.315002,51.936991],[4.315492,51.937529],[4.315511,51.93755],[4.31553,51.937576],[4.315573,51.937618],[4.315634,51.937643],[4.316016,51.937881],[4.316092,51.937926],[4.316158,51.93796],[4.316659,51.938194],[4.317297,51.938556],[4.317492,51.938802],[4.317927,51.938976],[4.318198,51.93917],[4.318324,51.939269],[4.31886,51.939743],[4.319102,51.939928],[4.319508,51.94022],[4.31992,51.940544],[4.320128,51.940608],[4.320558,51.94091],[4.320623,51.94098],[4.321692,51.94176],[4.321986,51.941995],[4.32227,51.94222],[4.322276,51.942225],[4.322288,51.942234],[4.322301,51.942245],[4.322315,51.942256],[4.322334,51.942271],[4.322337,51.942273],[4.322364,51.942295],[4.322376,51.942304],[4.322377,51.942304],[4.322444,51.942358],[4.322459,51.942369],[4.3225,51.942402],[4.322539,51.942433],[4.322577,51.942463],[4.322688,51.94255],[4.322723,51.942578],[4.322893,51.942712],[4.322905,51.942699],[4.322906,51.942698],[4.323218,51.942357],[4.323873,51.94164],[4.324126,51.94173],[4.324144,51.941736],[4.324163,51.941743],[4.324179,51.941748],[4.324397,51.941835],[4.324418,51.941843],[4.324459,51.941864],[4.324461,51.941865],[4.32455,51.94191],[4.324615,51.941943],[4.324772,51.942026],[4.324889,51.942045],[4.325019,51.942049],[4.325236,51.942104],[4.325466,51.942189],[4.325736,51.942228],[4.325813,51.942279],[4.325937,51.94242],[4.326006,51.942465],[4.326083,51.942488],[4.326249,51.942503],[4.326342,51.942527],[4.326468,51.942578],[4.326844,51.94278],[4.327212,51.942944],[4.327353,51.942983],[4.327757,51.943043],[4.327822,51.943057],[4.327918,51.943117],[4.327992,51.943184],[4.328148,51.943269],[4.328343,51.943332],[4.328454,51.943357],[4.328515,51.943395],[4.32862,51.943487],[4.328974,51.943638],[4.32954,51.943811],[4.329757,51.943899],[4.329794,51.943918],[4.330126,51.944086],[4.330306,51.944153],[4.330714,51.944241],[4.330787,51.944257],[4.331019,51.944315],[4.331399,51.944503],[4.332461,51.944888],[4.332878,51.945012],[4.333292,51.945237],[4.333414,51.945266],[4.333627,51.945288],[4.333811,51.945343],[4.333934,51.94541],[4.334063,51.945511],[4.334256,51.94558],[4.334669,51.945691],[4.335388,51.945964],[4.33646,51.946434],[4.335549,51.946974],[4.33553,51.946994],[4.335586,51.947024],[4.336278,51.947286],[4.336556,51.947397],[4.337097,51.947566],[4.337425,51.94763],[4.337829,51.947758],[4.337947,51.947784],[4.338112,51.947851],[4.338431,51.948007],[4.33862,51.948071],[4.338767,51.948087],[4.338774,51.948088],[4.338841,51.948095],[4.338842,51.94807],[4.338867,51.948064],[4.338879,51.948067],[4.340304,51.948534],[4.340823,51.948692],[4.341328,51.948824],[4.341528,51.948952],[4.341659,51.948993],[4.341827,51.948997],[4.341942,51.94897],[4.342013,51.948943],[4.342078,51.948939],[4.342231,51.948981],[4.342404,51.949053],[4.342556,51.949153],[4.34259,51.949185],[4.342683,51.949273],[4.342834,51.949341],[4.343031,51.949401],[4.34338,51.949479],[4.343626,51.949567],[4.343711,51.94959],[4.344028,51.949623],[4.344161,51.949651],[4.344554,51.949783],[4.344926,51.949798],[4.34499,51.94981],[4.345282,51.949963],[4.345463,51.950022],[4.345571,51.950017],[4.345657,51.950016],[4.345739,51.950046],[4.34589,51.950113],[4.346124,51.950183],[4.346633,51.950296],[4.346898,51.950384],[4.347156,51.950438],[4.347498,51.95054],[4.34806,51.950771],[4.348576,51.950912],[4.349147,51.951056],[4.349319,51.951134],[4.349743,51.951185],[4.350138,51.951395],[4.350483,51.951456],[4.350671,51.951507],[4.350973,51.951587],[4.351046,51.951608],[4.351047,51.951608],[4.351154,51.951638],[4.351154,51.951638],[4.351171,51.951642],[4.351172,51.951642],[4.351272,51.951632],[4.351289,51.951632],[4.351311,51.951633],[4.351544,51.951643],[4.351646,51.951697],[4.351651,51.951699],[4.351722,51.951737],[4.351724,51.951737],[4.351774,51.951764],[4.351779,51.951765],[4.352188,51.95187],[4.352358,51.951905],[4.352358,51.951905],[4.352557,51.951947],[4.352543,51.951974],[4.352592,51.951995],[4.352826,51.9521],[4.35298,51.952154],[4.353046,51.952165],[4.353047,51.952165],[4.353103,51.952174],[4.353122,51.952177],[4.35313,51.952179],[4.353503,51.952241],[4.353646,51.952277],[4.353904,51.952355],[4.3544,51.952417],[4.35445,51.952432],[4.354788,51.952604],[4.355095,51.952684],[4.355224,51.952693],[4.355405,51.952682],[4.355484,51.952689],[4.355513,51.952692],[4.355779,51.95278],[4.356226,51.952885],[4.356491,51.952935],[4.357548,51.95313],[4.357739,51.953223],[4.357992,51.953276],[4.358642,51.953444],[4.359148,51.953517],[4.359464,51.953588],[4.359772,51.953677],[4.359893,51.953681],[4.360058,51.953697],[4.36016,51.953737],[4.360273,51.953786],[4.360459,51.953828],[4.360923,51.953905],[4.361468,51.954019],[4.36189,51.954071],[4.362152,51.95417],[4.36259,51.954318],[4.363125,51.954436],[4.363738,51.954526],[4.364312,51.954668],[4.365082,51.954834],[4.36576,51.954985],[4.365875,51.955002],[4.366377,51.955077],[4.367071,51.95522],[4.367046,51.955265],[4.366981,51.955382],[4.366966,51.955409],[4.366475,51.956296],[4.366011,51.957044],[4.36557,51.957724],[4.365568,51.957728],[4.365552,51.957754],[4.365545,51.957765],[4.365492,51.957851],[4.365486,51.95786],[4.365268,51.958213],[4.364706,51.959061],[4.36351,51.960871],[4.363533,51.960874],[4.363538,51.960874],[4.364177,51.960968],[4.364346,51.960993],[4.364353,51.960994],[4.364355,51.960994],[4.36441,51.961002],[4.364461,51.961009],[4.364511,51.961017],[4.364526,51.961019],[4.364527,51.961019],[4.364548,51.961022],[4.364703,51.961045],[4.364865,51.961069],[4.364904,51.961074],[4.364925,51.961077],[4.365103,51.961106],[4.369192,51.961769],[4.371649,51.962168],[4.372956,51.96238],[4.373497,51.962468],[4.373687,51.962515],[4.373722,51.962522],[4.373763,51.962531],[4.3738,51.962539],[4.373843,51.962547],[4.373877,51.962553],[4.373978,51.962567],[4.374054,51.96258],[4.374097,51.962587],[4.374159,51.962601],[4.374208,51.96261],[4.374276,51.962618],[4.374349,51.962627],[4.374387,51.962633],[4.374435,51.962646],[4.374579,51.962697],[4.374695,51.962689],[4.374724,51.962687],[4.374869,51.962678],[4.374877,51.962675],[4.374892,51.962678],[4.375713,51.962814],[4.376537,51.962953],[4.378771,51.96332],[4.379113,51.963375],[4.379309,51.963407],[4.37962,51.962861],[4.37966,51.962788],[4.379821,51.962499],[4.379875,51.962401],[4.37988,51.962392],[4.379897,51.962359],[4.379917,51.962322],[4.380256,51.961685],[4.380699,51.960852],[4.381032,51.960228],[4.381032,51.960226],[4.381149,51.960006],[4.381363,51.959592],[4.381668,51.959002],[4.38167,51.958997],[4.381671,51.958995],[4.381895,51.958603],[4.381905,51.958584],[4.381922,51.958554],[4.382055,51.958307],[4.382328,51.9578],[4.38233,51.957797],[4.382347,51.957764],[4.382364,51.957733],[4.382415,51.957638],[4.382514,51.957453],[4.382847,51.956867],[4.382913,51.956751],[4.383345,51.955928],[4.383628,51.955388],[4.383743,51.955174],[4.38397,51.954751],[4.383979,51.954734],[4.384001,51.954693],[4.384023,51.954652],[4.38404,51.95462],[4.384433,51.953889],[4.384439,51.953878],[4.38444,51.953876],[4.384454,51.95385],[4.384669,51.953449],[4.384765,51.95327],[4.384889,51.953038],[4.385102,51.952641],[4.385614,51.951685],[4.385617,51.95168],[4.386229,51.950537],[4.386302,51.9504],[4.386658,51.949752],[4.386962,51.949197],[4.387074,51.948992],[4.387165,51.948826],[4.387165,51.948826],[4.387523,51.948172],[4.387538,51.948145],[4.387548,51.948127],[4.387556,51.948112],[4.387567,51.948093],[4.387591,51.948049],[4.387658,51.947927],[4.38783,51.947613],[4.387831,51.947611],[4.387947,51.947399],[4.387949,51.947396],[4.387971,51.947355],[4.388116,51.947066],[4.388136,51.947028],[4.388173,51.946953],[4.388203,51.946894],[4.388258,51.946784],[4.388302,51.946696],[4.388311,51.946679],[4.388423,51.946456],[4.388423,51.946456],[4.388423,51.946455],[4.388425,51.946452],[4.388426,51.94645],[4.388426,51.946449],[4.388536,51.946231],[4.388536,51.946231],[4.38891,51.94553],[4.388933,51.945535],[4.389306,51.945619],[4.389333,51.945626],[4.389501,51.945589],[4.389599,51.94552],[4.389672,51.945472],[4.389752,51.945497],[4.389767,51.945502],[4.389821,51.945519],[4.389849,51.945528],[4.389851,51.945528],[4.389925,51.945551],[4.389939,51.945556],[4.39016,51.94563],[4.390634,51.945789],[4.392407,51.946423],[4.393964,51.946979],[4.393966,51.946979],[4.394057,51.947012],[4.394352,51.94711],[4.394781,51.947016],[4.394851,51.947001],[4.395142,51.946937],[4.395165,51.946932],[4.395188,51.946927],[4.395151,51.946857],[4.395132,51.946824],[4.395074,51.946724],[4.394921,51.946458],[4.394379,51.945518],[4.393669,51.944613],[4.393523,51.944523],[4.393478,51.944465],[4.393448,51.94426],[4.393876,51.944119],[4.394063,51.944093],[4.394216,51.943999],[4.394977,51.942909],[4.395006,51.942892],[4.397778,51.941302],[4.397865,51.941251],[4.398472,51.940819],[4.39874,51.940608],[4.399256,51.940253],[4.399376,51.94016],[4.399512,51.940075],[4.399654,51.939962],[4.399789,51.939871],[4.400096,51.939669],[4.400381,51.939483],[4.40047,51.93944],[4.400783,51.93924],[4.401274,51.93918],[4.401554,51.939164],[4.401755,51.939153],[4.401777,51.939152],[4.401924,51.939056],[4.402034,51.938984],[4.402115,51.938931],[4.402128,51.938918],[4.402151,51.938897],[4.40209,51.938435],[4.402123,51.938402],[4.402161,51.938373],[4.40392,51.937253],[4.405822,51.937861],[4.406075,51.937801],[4.406519,51.937953],[4.408518,51.938637],[4.409317,51.937981],[4.410803,51.938268],[4.410894,51.938298],[4.410946,51.938315],[4.411697,51.938561],[4.411808,51.938598],[4.413207,51.939058],[4.413814,51.939386],[4.414188,51.939613],[4.414557,51.940114],[4.415459,51.940736],[4.415462,51.940738],[4.415492,51.940759],[4.415526,51.940718],[4.416381,51.939688],[4.41642,51.939641],[4.416437,51.939619],[4.416445,51.939611],[4.416445,51.93961],[4.416525,51.939513],[4.416582,51.939514],[4.416644,51.939467],[4.417211,51.938961],[4.417336,51.938843],[4.417358,51.938823],[4.417404,51.938778],[4.417405,51.938777],[4.417405,51.938777],[4.417525,51.93866],[4.417713,51.938477],[4.417635,51.938439],[4.417537,51.938392],[4.417454,51.938353],[4.41735,51.938303],[4.417012,51.938252],[4.417005,51.938251],[4.416751,51.938213],[4.416588,51.938166],[4.416548,51.938155],[4.416464,51.938133],[4.41646,51.938137],[4.416356,51.938093],[4.416312,51.938075],[4.416308,51.938077],[4.416275,51.938063],[4.416237,51.938048],[4.416238,51.938045],[4.416178,51.938022],[4.416176,51.938021],[4.41588,51.937897],[4.41582,51.937872],[4.415586,51.937774],[4.415286,51.937635],[4.415271,51.937628],[4.415086,51.937541],[4.414856,51.937422],[4.414829,51.937408],[4.414828,51.937407],[4.414779,51.937382],[4.414762,51.937374],[4.414832,51.937297],[4.414979,51.937338],[4.41513,51.937371],[4.415314,51.937394],[4.415606,51.937412],[4.415607,51.93739],[4.415863,51.937407],[4.415895,51.937377],[4.415943,51.937332],[4.416019,51.937363],[4.416142,51.937403],[4.416169,51.937415],[4.416211,51.93742],[4.416272,51.937364],[4.416673,51.93742],[4.416721,51.937436],[4.416729,51.937428],[4.417221,51.937497],[4.417173,51.937577],[4.417133,51.937625],[4.417198,51.937647],[4.417388,51.937726],[4.417384,51.937729],[4.417438,51.937752],[4.417777,51.937404],[4.418132,51.937092],[4.418443,51.936843],[4.418873,51.936478],[4.419494,51.935971],[4.420071,51.935508],[4.420695,51.934893],[4.42111,51.934546],[4.421663,51.934109],[4.422442,51.933451],[4.423566,51.932524],[4.424058,51.932141],[4.424529,51.931752],[4.424933,51.931413],[4.425713,51.930791],[4.426466,51.93023],[4.427333,51.929613],[4.428197,51.928979],[4.428754,51.928529],[4.429491,51.928009],[4.429573,51.927928],[4.429579,51.927923],[4.429603,51.927933],[4.430015,51.927646],[4.42999,51.927635],[4.430125,51.927569],[4.430627,51.927218],[4.432342,51.92608],[4.433363,51.925235],[4.435432,51.923602],[4.435518,51.923537],[4.436299,51.92295],[4.436543,51.922744],[4.436663,51.922637],[4.436981,51.922242],[4.437247,51.922028],[4.43728,51.922043],[4.437415,51.922054],[4.437451,51.922025],[4.437487,51.922042],[4.437498,51.922033],[4.437537,51.922051],[4.437527,51.922058],[4.437532,51.922059],[4.438022,51.922099],[4.440468,51.9223],[4.441286,51.922367],[4.441295,51.92233],[4.445882,51.922707],[4.445897,51.922646],[4.446084,51.92267],[4.446227,51.922683],[4.447171,51.922764],[4.447745,51.922806],[4.448104,51.922828],[4.448127,51.922829],[4.448718,51.922866],[4.451003,51.92302],[4.452339,51.923056],[4.453741,51.923076],[4.453742,51.923031],[4.454485,51.923043],[4.454799,51.923042],[4.454801,51.923031],[4.454911,51.923039],[4.454963,51.922745],[4.455177,51.92276],[4.456115,51.922829],[4.457401,51.92293],[4.457889,51.922963],[4.462193,51.923278],[4.462192,51.923284],[4.462185,51.923309],[4.462518,51.923349],[4.462726,51.92276],[4.462829,51.922412],[4.463041,51.921696],[4.463062,51.921629],[4.463081,51.921561],[4.4631,51.921493],[4.463117,51.921425],[4.463132,51.921358],[4.463147,51.921289],[4.463183,51.921116],[4.463195,51.921054],[4.463207,51.920991],[4.463218,51.920928],[4.463228,51.920865],[4.463238,51.920802],[4.463247,51.920739],[4.463272,51.920548],[4.463281,51.920482],[4.463288,51.920417],[4.463295,51.920351],[4.463301,51.920285],[4.463306,51.92022],[4.463311,51.920154],[4.463316,51.920077],[4.463318,51.919934],[4.463313,51.91982],[4.463296,51.919654],[4.463309,51.91961],[4.463317,51.919496],[4.46327,51.91916],[4.463267,51.919138],[4.463193,51.918893],[4.463075,51.918276],[4.462849,51.917197],[4.462811,51.916992],[4.462791,51.916839],[4.462784,51.916654],[4.462788,51.916468],[4.462804,51.916283],[4.46282,51.916167],[4.462842,51.916051],[4.462867,51.915936],[4.46294,51.915694],[4.463024,51.915475],[4.463079,51.915348],[4.463228,51.915026],[4.463386,51.914684],[4.463419,51.914613],[4.463505,51.914397],[4.463581,51.91416],[4.463638,51.913933],[4.463648,51.913879],[4.463682,51.913699],[4.463722,51.913485],[4.463739,51.913361],[4.463742,51.913331],[4.463744,51.913301],[4.463745,51.913271],[4.463746,51.913241],[4.463746,51.91321],[4.463745,51.91318],[4.463744,51.913145],[4.463741,51.91311],[4.463738,51.913076],[4.463734,51.913041],[4.463729,51.913006],[4.463724,51.912971],[4.463719,51.912946],[4.463715,51.912922],[4.463709,51.912897],[4.463703,51.912872],[4.463697,51.912848],[4.46369,51.912823],[4.463495,51.912227],[4.463488,51.912173],[4.463485,51.912107],[4.463494,51.912021],[4.463508,51.911956],[4.463531,51.911896],[4.463637,51.911755],[4.463274,51.911644],[4.463159,51.911609],[4.461611,51.911136],[4.460748,51.91088],[4.460297,51.910756],[4.459983,51.910661],[4.459707,51.910549],[4.459488,51.910434],[4.459462,51.91042],[4.459436,51.910406],[4.459411,51.910392],[4.459387,51.910377],[4.459363,51.910362],[4.45934,51.910346],[4.4592,51.910249],[4.459107,51.910178],[4.459081,51.910147],[4.459069,51.91012],[4.45899,51.910124],[4.45899,51.910125],[4.45899,51.910125],[4.45899,51.910126],[4.45899,51.910126],[4.45899,51.910126],[4.45899,51.910127],[4.45899,51.910127],[4.45899,51.910128],[4.458989,51.910128],[4.458989,51.910128],[4.458989,51.910129],[4.458988,51.910129],[4.458988,51.910129],[4.458987,51.910129],[4.458987,51.91013],[4.458986,51.91013],[4.458985,51.91013],[4.458985,51.91013],[4.458984,51.91013],[4.458983,51.91013],[4.458983,51.91013],[4.458982,51.91013],[4.458982,51.91013],[4.458981,51.91013],[4.45898,51.91013],[4.45898,51.91013],[4.458979,51.91013],[4.458979,51.910129],[4.458978,51.910129],[4.458978,51.910129],[4.458701,51.909918],[4.458688,51.90991],[4.458674,51.909901],[4.45866,51.909893],[4.458646,51.909884],[4.458631,51.909877],[4.458616,51.909869],[4.45855,51.909842],[4.45785,51.909628],[4.457601,51.909552],[4.45785,51.909189],[4.45821,51.90868],[4.458304,51.908547],[4.459564,51.908896],[4.460815,51.909046],[4.462442,51.908883],[4.462985,51.908145],[4.464009,51.906641],[4.466678,51.902334],[4.46677,51.902166],[4.467761,51.900349],[4.467584,51.900311],[4.467067,51.900191],[4.466861,51.90015],[4.46671,51.900118],[4.466559,51.900086],[4.466408,51.900054],[4.466256,51.900023],[4.466105,51.899993],[4.465953,51.899963],[4.465882,51.899949],[4.465811,51.899935],[4.465739,51.899922],[4.465667,51.89991],[4.465595,51.899898],[4.465523,51.899886],[4.464033,51.899651],[4.463748,51.899609],[4.463488,51.899575],[4.461602,51.899355],[4.461495,51.899344],[4.461387,51.899333],[4.46128,51.899322],[4.461172,51.899313],[4.461064,51.899304],[4.460956,51.899297],[4.46074,51.899283],[4.460525,51.899269],[4.460309,51.899257],[4.460094,51.899246],[4.459878,51.899235],[4.459662,51.899225],[4.458839,51.899184],[4.458515,51.89918],[4.45837,51.89917],[4.45821,51.899169],[4.458065,51.899176],[4.457905,51.899175],[4.457643,51.899191],[4.45758,51.899193],[4.457516,51.899194],[4.457453,51.899194],[4.457389,51.899193],[4.457326,51.899192],[4.457262,51.89919],[4.457173,51.899187],[4.457084,51.899185],[4.456995,51.899184],[4.456906,51.899183],[4.456817,51.899183],[4.456728,51.899184],[4.456379,51.89919],[4.455826,51.899231],[4.455462,51.899255],[4.455401,51.899258],[4.45534,51.899261],[4.455278,51.899263],[4.455217,51.899264],[4.455156,51.899265],[4.455094,51.899265],[4.45501,51.899265],[4.454926,51.899266],[4.454842,51.899267],[4.454758,51.899269],[4.454674,51.899271],[4.45459,51.899275],[4.454299,51.89929],[4.454153,51.899307],[4.453863,51.899332],[4.45344,51.899356],[4.453171,51.899368],[4.452669,51.899412],[4.452407,51.899446],[4.450534,51.899614],[4.448751,51.899849],[4.446402,51.900213],[4.439135,51.901429],[4.435513,51.901962],[4.434916,51.902029],[4.434421,51.90207],[4.433766,51.902137],[4.433518,51.902153],[4.433285,51.902178],[4.432529,51.902226],[4.432252,51.90225],[4.431452,51.902298],[4.431233,51.902314],[4.430783,51.902328],[4.43055,51.902344],[4.43007,51.902359],[4.429823,51.902375],[4.428456,51.902408],[4.428165,51.902406],[4.42786,51.902412],[4.427395,51.902409],[4.427206,51.902416],[4.426262,51.902408],[4.426073,51.902398],[4.42587,51.902396],[4.425492,51.902375],[4.425318,51.902374],[4.424781,51.902342],[4.424244,51.902311],[4.423301,51.902231],[4.423054,51.90222],[4.422634,51.902181],[4.422358,51.902152],[4.422097,51.902141],[4.421517,51.902073],[4.421184,51.902025],[4.420474,51.901956],[4.420126,51.9019],[4.419836,51.901861],[4.417534,51.901483],[4.417245,51.901426],[4.416955,51.901379],[4.41668,51.901323],[4.41639,51.901276],[4.415812,51.901163],[4.414972,51.900994],[4.41371,51.900755],[4.413679,51.900748],[4.41084,51.900112],[4.409757,51.899868],[4.409713,51.899858],[4.408017,51.899476],[4.407958,51.899463],[4.402138,51.898156],[4.399034,51.897417],[4.398632,51.897342],[4.398126,51.897251],[4.3976,51.897166],[4.397011,51.897078],[4.396385,51.896994],[4.395758,51.896926],[4.394992,51.896849],[4.39342,51.896736],[4.391978,51.896687],[4.391574,51.896681],[4.391013,51.896679],[4.390387,51.896689],[4.389757,51.896706],[4.389144,51.896733],[4.388511,51.896768],[4.388344,51.896779],[4.387617,51.896846],[4.384823,51.897179],[4.382036,51.897626],[4.380173,51.897925],[4.379005,51.898113],[4.377838,51.898302],[4.375092,51.898746],[4.373795,51.898956],[4.373123,51.899054],[4.37239,51.899158],[4.372316,51.899168],[4.372223,51.899179],[4.372137,51.899188],[4.371077,51.899309],[4.37103,51.899314],[4.370681,51.899351],[4.370623,51.899356],[4.370338,51.899376],[4.369568,51.899432],[4.368885,51.899498],[4.367929,51.899555],[4.367495,51.899574],[4.367197,51.899586],[4.366539,51.89961],[4.36565,51.899628],[4.365442,51.89963],[4.365233,51.899631],[4.365025,51.899632],[4.364816,51.899631],[4.364608,51.89963],[4.364399,51.899629],[4.364191,51.899626],[4.363982,51.899623],[4.363774,51.89962],[4.363566,51.899615],[4.363357,51.89961],[4.363149,51.899604],[4.362941,51.899597],[4.362732,51.89959],[4.362524,51.899582],[4.362316,51.899573],[4.362108,51.899564],[4.361901,51.899554],[4.361693,51.899543],[4.361485,51.899532],[4.361278,51.899519],[4.36107,51.899507],[4.360863,51.899493],[4.360656,51.899479],[4.360448,51.899464],[4.360241,51.899448],[4.360035,51.899431],[4.359828,51.899414],[4.359621,51.899396],[4.359415,51.899378],[4.359209,51.899359],[4.359003,51.899339],[4.358797,51.899318],[4.358592,51.899297],[4.358386,51.899275],[4.358181,51.899252],[4.357976,51.899229],[4.357771,51.899205],[4.357566,51.89918],[4.357362,51.899154],[4.357158,51.899128],[4.356953,51.899101],[4.356749,51.899074],[4.356545,51.899045],[4.356342,51.899016],[4.356139,51.898986],[4.355935,51.898956],[4.355733,51.898925],[4.35553,51.898893],[4.355328,51.89886],[4.355126,51.898827],[4.354924,51.898793],[4.354723,51.898759],[4.354522,51.898723],[4.354321,51.898687],[4.354121,51.898651],[4.353921,51.898613],[4.353721,51.898575],[4.353522,51.898537],[4.353323,51.898497],[4.353124,51.898457],[4.352926,51.898417],[4.352728,51.898375],[4.35253,51.898333],[4.352333,51.898291],[4.352136,51.898247],[4.35194,51.898203],[4.351744,51.898159],[4.351548,51.898113],[4.351353,51.898067],[4.351158,51.89802],[4.350964,51.897973],[4.35077,51.897925],[4.350576,51.897876],[4.350383,51.897827],[4.35019,51.897777],[4.349998,51.897726],[4.349798,51.89767],[4.348848,51.897405],[4.348676,51.897352],[4.347591,51.897023],[4.346379,51.896657],[4.344998,51.896266],[4.344123,51.896038],[4.343478,51.895875],[4.343314,51.895837],[4.342595,51.895669],[4.341114,51.89535],[4.341071,51.895342],[4.339739,51.895084],[4.338885,51.894938],[4.338089,51.894805],[4.336754,51.894613],[4.336684,51.894603],[4.335279,51.894429],[4.333844,51.894281],[4.332408,51.894178],[4.330957,51.894103],[4.329509,51.894063],[4.327995,51.89404],[4.326614,51.894063],[4.32516,51.894104],[4.32372,51.894172],[4.32225,51.894276],[4.320851,51.894452],[4.319597,51.894575],[4.319448,51.894589],[4.319424,51.894592],[4.317924,51.894743],[4.313291,51.895211],[4.308196,51.895691]]]}}]}